[{"OBJECT_NAME":"GHOST-4","OBJECT_ID":"2024-043AM","EPOCH":"2026-03-09T21:24:02.467008","MEAN_MOTION":15.40436625,"ECCENTRICITY":0.00084177,"INCLINATION":97.5443,"RA_OF_ASC_NODE":210.3538,"ARG_OF_PERICENTER":209.2887,"MEAN_ANOMALY":150.7888,"EPHEMERIS_TYPE":0,"CLASSIFICATION_TYPE":"U","NORAD_CAT_ID":59133,"ELEMENT_SET_NO":999,"REV_AT_EPOCH":11223,"BSTAR":0.00046285674,"MEAN_MOTION_DOT":0.00018691,"MEAN_MOTION_DDOT":0},{"OBJECT_NAME":"KUIPER-00075","OBJECT_ID":"2025-151G","EPOCH":"2026-03-09T15:30:47.554272","MEAN_MOTION":15.41855239,"ECCENTRICITY":0.0003756,"INCLINATION":51.87,"RA_OF_ASC_NODE":221.9898,"ARG_OF_PERICENTER":280.3148,"MEAN_ANOMALY":79.7417,"EPHEMERIS_TYPE":0,"CLASSIFICATION_TYPE":"U","NORAD_CAT_ID":64822,"ELEMENT_SET_NO":999,"REV_AT_EPOCH":3639,"BSTAR":0.00059995,"MEAN_MOTION_DOT":0.00025547,"MEAN_MOTION_DDOT":0}]
