GHOST-4                 
1 59133U 24043AM  26068.89169521  .00018691  00000+0  46286-3 0  9990
2 59133  97.5443 210.3538 0008418 209.2887 150.7888 15.40436625112236
KUIPER-00075            
1 64822U 25151G   26068.64638373  .00025547  00000+0  59995-3 0  9990
2 64822  51.8700 221.9898 0003756 280.3148  79.7417 15.41855239 36390
